NORAD_CAT_ID,OBJECT_NAME,OBJECT_TYPE,EPOCH,MEAN_MOTION,ECCENTRICITY,INCLINATION,RA_OF_ASC_NODE,ARG_OF_PERICENTER,MEAN_ANOMALY,BSTAR,MEAN_MOTION_DOT,MEAN_MOTION_DDOT,TLE_LINE0,TLE_LINE1,TLE_LINE2,SEMIMAJOR_AXIS,PERIOD,APOGEE,PERIGEE,DECAYED
52480.0,STARLINK-3839,PAYLOAD,2024-03-10 07:48:01,15.08841783,0.000144,53.2156,93.3643,92.4202,267.6955,3.4324e-05,2.58e-06,0.0,0 STARLINK-3839,1 52480U 22049AF  24070.32501683  .00000258  00000-0  34324-4 0  9992,2 52480  53.2156  93.3643 0001440  92.4202 267.6955 15.08841783102142,6917.875,95.437,540.736,538.744,0.0
52480.0,STARLINK-3839,PAYLOAD,2024-03-10 20:31:06,15.08840725,0.0001394,53.2154,90.9859,92.1693,267.9459,4.1962e-05,3.8e-06,0.0,0 STARLINK-3839,1 52480U 22049AF  24070.85493661  .00000380  00000-0  41962-4 0  9998,2 52480  53.2154  90.9859 0001394  92.1693 267.9459 15.08840725102227,6917.878,95.438,540.708,538.779,0.0
52480.0,STARLINK-3839,PAYLOAD,2024-03-11 07:38:48,15.08831523,0.00011,53.2159,88.905,101.5331,258.5785,0.00016849,2.394e-05,0.0,0 STARLINK-3839,1 52480U 22049AF  24071.31861821  .00002394  00000-0  16849-3 0  9999,2 52480  53.2159  88.9050 0001100 101.5331 258.5785 15.08831523102450,6917.906,95.438,540.532,539.01,0.0
52480.0,STARLINK-3839,PAYLOAD,2024-03-12 04:18:49,15.08822397,0.0001054,53.2161,85.0399,98.1365,261.9747,0.00015616,2.197e-05,0.0,0 STARLINK-3839,1 52480U 22049AF  24072.17974518  .00002197  00000-0  15616-3 0  9994,2 52480  53.2161  85.0399 0001054  98.1365 261.9747 15.08822397102582,6917.934,95.439,540.528,539.07,0.0
52480.0,STARLINK-3839,PAYLOAD,2024-03-12 10:40:22,15.08836734,0.0001521,53.216,83.8497,97.1484,262.9681,6.5786e-06,-1.83e-06,0.0,0 STARLINK-3839,1 52480U 22049AF  24072.44470188 -.00000183  00000-0  65786-5 0  9997,2 52480  53.2160  83.8497 0001521  97.1484 262.9681 15.08836734102629,6917.89,95.438,540.808,538.703,0.0
52480.0,STARLINK-3839,PAYLOAD,2024-03-13 05:44:59,15.08844309,0.0001523,53.2162,80.2818,97.6836,262.4329,7.7756e-05,9.5e-06,0.0,0 STARLINK-3839,1 52480U 22049AF  24073.23957477  .00000950  00000-0  77756-4 0  9996,2 52480  53.2162  80.2818 0001523  97.6836 262.4329 15.08844309102741,6917.867,95.437,540.786,538.679,0.0
52480.0,STARLINK-3839,PAYLOAD,2024-03-13 07:20:22,15.08844984,0.0001489,53.2162,79.9855,93.607,266.5093,7.8978e-05,9.69e-06,0.0,0 STARLINK-3839,1 52480U 22049AF  24073.30581442  .00000969  00000-0  78978-4 0  9996,2 52480  53.2162  79.9855 0001489  93.6070 266.5093 15.08844984102599,6917.865,95.437,540.76,538.7,0.0
52480.0,STARLINK-3839,PAYLOAD,2024-03-13 16:52:41,15.0884016,0.0001458,53.2153,78.1996,88.1125,272.0034,2.8801e-05,1.7e-06,0.0,0 STARLINK-3839,1 52480U 22049AF  24073.70325849  .00000170  00000-0  28801-4 0  9991,2 52480  53.2153  78.1996 0001458  88.1125 272.0034 15.08840160102658,6917.88,95.438,540.754,538.736,0.0
52480.0,STARLINK-3839,PAYLOAD,2024-03-14 05:35:47,15.08835684,0.000149,53.216,75.8217,88.9263,271.19,9.1054e-06,-1.43e-06,0.0,0 STARLINK-3839,1 52480U 22049AF  24074.23318433 -.00000143  00000-0  91054-5 0  9993,2 52480  53.2160  75.8217 0001490  88.9263 271.1900 15.08835684102896,6917.894,95.438,540.789,538.728,0.0
52480.0,STARLINK-3839,PAYLOAD,2024-03-14 07:11:09,15.08839682,0.0001519,53.2169,75.524,98.7839,261.3325,4.2627e-05,3.9e-06,0.0,0 STARLINK-3839,1 52480U 22049AF  24074.29942032  .00000390  00000-0  42627-4 0  9991,2 52480  53.2169  75.5240 0001519  98.7839 261.3325 15.08839682102746,6917.881,95.438,540.797,538.696,0.0
52480.0,STARLINK-3839,PAYLOAD,2024-03-15 03:51:14,15.08799858,0.0001319,53.2155,71.6565,79.5321,280.5819,-0.00035847,-5.982e-05,0.0,0 STARLINK-3839,1 52480U 22049AF  24075.16058352 -.00005982  00000-0 -35847-3 0  9990,2 52480  53.2155  71.6565 0001319  79.5321 280.5819 15.08799858103033,6918.003,95.44,540.781,538.956,0.0
52480.0,STARLINK-3839,PAYLOAD,2024-03-15 08:37:22,15.08818503,0.0001548,53.2162,70.7622,134.5909,225.5209,-0.00018615,-3.248e-05,0.0,0 STARLINK-3839,1 52480U 22049AF  24075.35929384 -.00003248  00000-0 -18615-3 0  9990,2 52480  53.2162  70.7622 0001548 134.5909 225.5209 15.08818503103067,6917.946,95.439,540.882,538.74,0.0
52480.0,STARLINK-3839,PAYLOAD,2024-03-16 05:17:22,15.08834736,0.0001612,53.217,66.9007,79.4288,280.6885,3.9567e-05,3.42e-06,0.0,0 STARLINK-3839,1 52480U 22049AF  24076.22040024  .00000342  00000-0  39567-4 0  9992,2 52480  53.2170  66.9007 0001612  79.4288 280.6885 15.08834736103191,6917.896,95.438,540.877,538.646,0.0
52480.0,STARLINK-3839,PAYLOAD,2024-03-16 08:28:08,15.08839197,0.0001611,53.2176,66.3068,86.684,273.4337,7.8176e-05,9.56e-06,0.0,0 STARLINK-3839,1 52480U 22049AF  24076.35287669  .00000956  00000-0  78176-4 0  9994,2 52480  53.2176  66.3068 0001611  86.6840 273.4337 15.08839197103054,6917.883,95.438,540.862,538.633,0.0
52480.0,STARLINK-3839,PAYLOAD,2024-03-17 05:08:08,15.08829488,0.000152,53.2174,62.4387,81.2304,278.886,0.00045239,6.917e-05,0.0,0 STARLINK-3839,1 52480U 22049AF  24077.21399208  .00006917  00000-0  45239-3 0  9999,2 52480  53.2174  62.4387 0001520  81.2304 278.8860 15.08829488103342,6917.913,95.438,540.829,538.726,0.0
52480.0,STARLINK-3839,PAYLOAD,2024-03-17 06:43:31,15.08837131,0.0001455,53.2179,62.1431,62.5351,297.5789,0.0003879,5.89e-05,0.0,0 STARLINK-3839,1 52480U 22049AF  24077.28023088  .00005890  00000-0  38790-3 0  9999,2 52480  53.2179  62.1431 0001455  62.5351 297.5789 15.08837131103190,6917.889,95.438,540.761,538.748,0.0
52480.0,STARLINK-3839,PAYLOAD,2024-03-17 22:37:23,15.0884788,0.0001471,53.2175,59.1679,88.3783,271.7377,-1.1489e-05,-4.71e-06,0.0,0 STARLINK-3839,1 52480U 22049AF  24077.94263607 -.00000471  00000-0 -11489-4 0  9994,2 52480  53.2175  59.1679 0001471  88.3783 271.7377 15.08847880103299,6917.856,95.437,540.739,538.704,0.0
52480.0,STARLINK-3839,PAYLOAD,2024-03-18 04:58:56,15.08847414,0.0001581,53.218,57.9783,84.5107,275.6065,-1.7516e-06,-3.16e-06,0.0,0 STARLINK-3839,1 52480U 22049AF  24078.20759501 -.00000316  00000-0 -17516-5 0  9993,2 52480  53.2180  57.9783 0001581  84.5107 275.6065 15.08847414103332,6917.858,95.437,540.816,538.629,0.0
52480.0,STARLINK-3839,PAYLOAD,2024-03-18 22:28:10,15.08853627,0.0001475,53.2175,54.7065,105.0501,255.0654,-6.5318e-05,-1.328e-05,0.0,0 STARLINK-3839,1 52480U 22049AF  24078.93622827 -.00001328  00000-0 -65318-4 0  9999,2 52480  53.2175  54.7065 0001475 105.0501 255.0654 15.08853627103444,6917.839,95.437,540.724,538.683,0.0
52480.0,STARLINK-3839,PAYLOAD,2024-03-19 04:49:42,15.08859548,0.0001518,53.218,53.5186,89.3742,270.7424,3.0599e-06,-2.39e-06,0.0,0 STARLINK-3839,1 52480U 22049AF  24079.20118131 -.00000239  00000-0  30599-5 0  9991,2 52480  53.2180  53.5186 0001518  89.3742 270.7424 15.08859548103649,6917.821,95.436,540.736,538.636,0.0
52480.0,STARLINK-3839,PAYLOAD,2024-03-19 08:00:27,15.08863106,0.000145,53.2177,52.9221,102.5332,257.5823,4.7154e-05,4.63e-06,0.0,0 STARLINK-3839,1 52480U 22049AF  24079.33365539  .00000463  00000-0  47154-4 0  9993,2 52480  53.2177  52.9221 0001450 102.5332 257.5823 15.08863106103502,6917.81,95.436,540.678,538.672,0.0
52480.0,STARLINK-3839,PAYLOAD,2024-03-20 01:29:42,15.08847361,0.0001421,53.2176,49.6479,109.0009,251.1138,1.7627e-05,-7e-08,0.0,0 STARLINK-3839,1 52480U 22049AF  24080.06230202 -.00000007  00000-0  17627-4 0  9990,2 52480  53.2176  49.6479 0001421 109.0009 251.1138 15.08847361103773,6917.858,95.437,540.706,538.74,0.0
52480.0,STARLINK-3839,PAYLOAD,2024-03-20 04:40:28,15.08849151,0.0001525,53.218,49.0535,107.3124,252.8035,3.6104e-05,2.87e-06,0.0,0 STARLINK-3839,1 52480U 22049AF  24080.19477970  .00000287  00000-0  36104-4 0  9999,2 52480  53.2180  49.0535 0001525 107.3124 252.8035 15.08849151103637,6917.852,95.437,540.772,538.662,0.0
52480.0,STARLINK-3839,PAYLOAD,2024-03-21 04:31:16,15.08841525,0.000136,53.2171,44.5952,81.513,278.6016,-7.8549e-05,-1.538e-05,0.0,0 STARLINK-3839,1 52480U 22049AF  24081.18838945 -.00001538  00000-0 -78549-4 0  9993,2 52480  53.2171  44.5952 0001360  81.5130 278.6016 15.08841525103943,6917.876,95.437,540.682,538.8,0.0
52480.0,STARLINK-3839,PAYLOAD,2024-03-21 14:03:35,15.08841563,0.0001357,53.217,42.8113,80.901,279.2135,-7.36e-05,-1.459e-05,0.0,0 STARLINK-3839,1 52480U 22049AF  24081.58582935 -.00001459  00000-0 -73600-4 0  9997,2 52480  53.2170  42.8113 0001357  80.9010 279.2135 15.08841563103848,6917.876,95.437,540.679,538.802,0.0
52480.0,STARLINK-3839,PAYLOAD,2024-03-21 22:00:31,15.08832849,0.0001547,53.2165,41.3247,110.1878,249.9281,8.4784e-05,1.061e-05,0.0,0 STARLINK-3839,1 52480U 22049AF  24081.91703001  .00001061  00000-0  84784-4 0  9995,2 52480  53.2165  41.3247 0001547 110.1878 249.9281 15.08832849103891,6917.902,95.438,540.837,538.697,0.0
52480.0,STARLINK-3839,PAYLOAD,2024-03-22 02:46:39,15.08855797,0.0002276,53.2203,40.4343,131.7946,228.3241,8.2391e-05,1.024e-05,0.0,0 STARLINK-3839,1 52480U 22049AF  24082.11573490  .00001024  00000-0  82391-4 0  9996,2 52480  53.2203  40.4343 0002276 131.7946 228.3241 15.08855797104082,6917.832,95.437,541.272,538.123,0.0
52480.0,STARLINK-3839,PAYLOAD,2024-03-22 05:57:25,15.08857937,0.0001476,53.2184,39.8371,101.7034,258.4123,0.00017719,2.534e-05,0.0,0 STARLINK-3839,1 52480U 22049AF  24082.24821038  .00002534  00000-0  17719-3 0  9992,2 52480  53.2184  39.8371 0001476 101.7034 258.4123 15.08857937103944,6917.826,95.436,540.712,538.669,0.0
52480.0,STARLINK-3839,PAYLOAD,2024-03-23 04:12:51,15.0882812,0.0001103,53.2174,35.6745,93.425,266.6869,1.3909e-05,-6.6e-07,0.0,0 STARLINK-3839,1 52480U 22049AF  24083.17560074 -.00000066  00000-0  13909-4 0  9992,2 52480  53.2174  35.6745 0001103  93.4250 266.6869 15.08828120104240,6917.917,95.438,540.545,539.019,0.0
52480.0,STARLINK-3839,PAYLOAD,2024-03-23 05:48:15,15.08828575,0.0001114,53.2175,35.3771,90.7718,269.3402,1.606e-05,-3.2e-07,0.0,0 STARLINK-3839,1 52480U 22049AF  24083.24184098 -.00000032  00000-0  16060-4 0  9992,2 52480  53.2175  35.3771 0001114  90.7718 269.3402 15.08828575104098,6917.915,95.438,540.551,539.01,0.0
